{
  "type": "FeatureCollection",
  "features": [
    {
      "type": "Feature",
      "properties": {
        "norad_id": 32212,
        "name": "FENGYUN 1C DEB",
        "group": "fengyun-1c-debris",
        "lat": -40.945512079629616,
        "lon": 104.61885169034068,
        "alt_km": 757.4492115494868,
        "timestamp": "2025-12-24T03:53:29.933193+00:00",
        "meta_object_name": "FENGYUN 1C DEB",
        "meta_object_id": "1999-025CVJ",
        "meta_epoch": "2025-12-22T12:21:50.056416",
        "meta_mean_motion": 14.40349995,
        "meta_eccentricity": 0.01376106,
        "meta_inclination": 99.5728,
        "meta_ra_of_asc_node": 94.3588,
        "meta_arg_of_pericenter": 50.2821,
        "meta_mean_anomaly": 14.4282,
        "meta_ephemeris_type": 0,
        "meta_classification_type": "U",
        "meta_norad_cat_id": 32212,
        "meta_element_set_no": 999,
        "meta_rev_at_epoch": 96202,
        "meta_bstar": 0.00040041333,
        "meta_mean_motion_dot": 1.362e-05,
        "meta_mean_motion_ddot": 0,
        "tle_line1": "1 32212U 99025CVJ 25356.51516269  .00001362  00000+0  40041-3 0  9994",
        "tle_line2": "2 32212  99.5728  94.3588 0137610  50.2821  14.4282 14.40349995962023"
      },
      "geometry": {
        "type": "Point",
        "coordinates": [
          104.61885169034068,
          -40.945512079629616
        ]
      }
    },
    {
      "type": "Feature",
      "properties": {
        "norad_id": 32214,
        "name": "FENGYUN 1C DEB",
        "group": "fengyun-1c-debris",
        "lat": -80.30095666087855,
        "lon": 134.7561999855376,
        "alt_km": 958.745681632573,
        "timestamp": "2025-12-24T03:53:29.933204+00:00",
        "meta_object_name": "FENGYUN 1C DEB",
        "meta_object_id": "1999-025CVL",
        "meta_epoch": "2025-12-23T13:30:49.438080",
        "meta_mean_motion": 13.90648673,
        "meta_eccentricity": 0.0187951,
        "meta_inclination": 99.0436,
        "meta_ra_of_asc_node": 22.8936,
        "meta_arg_of_pericenter": 9.7014,
        "meta_mean_anomaly": 141.3281,
        "meta_ephemeris_type": 0,
        "meta_classification_type": "U",
        "meta_norad_cat_id": 32214,
        "meta_element_set_no": 999,
        "meta_rev_at_epoch": 62572,
        "meta_bstar": 0.0038484,
        "meta_mean_motion_dot": 5.496e-05,
        "meta_mean_motion_ddot": 0,
        "tle_line1": "1 32214U 99025CVL 25357.56307220  .00005496  00000+0  38484-2 0  9996",
        "tle_line2": "2 32214  99.0436  22.8936 0187951   9.7014 141.3281 13.90648673625726"
      },
      "geometry": {
        "type": "Point",
        "coordinates": [
          134.7561999855376,
          -80.30095666087855
        ]
      }
    },
    {
      "type": "Feature",
      "properties": {
        "norad_id": 32218,
        "name": "FENGYUN 1C DEB",
        "group": "fengyun-1c-debris",
        "lat": -72.93650884743488,
        "lon": -136.99297231390497,
        "alt_km": 728.6557954215959,
        "timestamp": "2025-12-24T03:53:29.933214+00:00",
        "meta_object_name": "FENGYUN 1C DEB",
        "meta_object_id": "1999-025CVQ",
        "meta_epoch": "2025-12-22T19:19:04.454688",
        "meta_mean_motion": 14.5555236,
        "meta_eccentricity": 0.00630124,
        "meta_inclination": 98.8113,
        "meta_ra_of_asc_node": 191.2214,
        "meta_arg_of_pericenter": 37.2215,
        "meta_mean_anomaly": 340.3531,
        "meta_ephemeris_type": 0,
        "meta_classification_type": "U",
        "meta_norad_cat_id": 32218,
        "meta_element_set_no": 999,
        "meta_rev_at_epoch": 96379,
        "meta_bstar": 0.00078398974,
        "meta_mean_motion_dot": 3.456e-05,
        "meta_mean_motion_ddot": 0,
        "tle_line1": "1 32218U 99025CVQ 25356.80491267  .00003456  00000+0  78399-3 0  9995",
        "tle_line2": "2 32218  98.8113 191.2214 0063012  37.2215 340.3531 14.55552360963799"
      },
      "geometry": {
        "type": "Point",
        "coordinates": [
          -136.99297231390497,
          -72.93650884743488
        ]
      }
    },
    {
      "type": "Feature",
      "properties": {
        "norad_id": 32221,
        "name": "FENGYUN 1C DEB",
        "group": "fengyun-1c-debris",
        "lat": -54.847286671544936,
        "lon": 160.80084446444076,
        "alt_km": 805.3747372671514,
        "timestamp": "2025-12-24T03:53:29.933224+00:00",
        "meta_object_name": "FENGYUN 1C DEB",
        "meta_object_id": "1999-025CVT",
        "meta_epoch": "2025-12-22T15:56:06.454176",
        "meta_mean_motion": 14.58733387,
        "meta_eccentricity": 0.01471175,
        "meta_inclination": 98.5663,
        "meta_ra_of_asc_node": 146.8961,
        "meta_arg_of_pericenter": 115.3214,
        "meta_mean_anomaly": 246.3306,
        "meta_ephemeris_type": 0,
        "meta_classification_type": "U",
        "meta_norad_cat_id": 32221,
        "meta_element_set_no": 999,
        "meta_rev_at_epoch": 97342,
        "meta_bstar": 0.00030266237,
        "meta_mean_motion_dot": 1.585e-05,
        "meta_mean_motion_ddot": 0,
        "tle_line1": "1 32221U 99025CVT 25356.66396359  .00001585  00000+0  30266-3 0  9991",
        "tle_line2": "2 32221  98.5663 146.8961 0147117 115.3214 246.3306 14.58733387973420"
      },
      "geometry": {
        "type": "Point",
        "coordinates": [
          160.80084446444076,
          -54.847286671544936
        ]
      }
    },
    {
      "type": "Feature",
      "properties": {
        "norad_id": 32223,
        "name": "FENGYUN 1C DEB",
        "group": "fengyun-1c-debris",
        "lat": 77.88970907932293,
        "lon": 30.742810791301853,
        "alt_km": 845.7643028520442,
        "timestamp": "2025-12-24T03:53:29.933236+00:00",
        "meta_object_name": "FENGYUN 1C DEB",
        "meta_object_id": "1999-025CVV",
        "meta_epoch": "2025-12-13T23:18:00.552672",
        "meta_mean_motion": 14.20905079,
        "meta_eccentricity": 0.00468432,
        "meta_inclination": 98.839,
        "meta_ra_of_asc_node": 67.0353,
        "meta_arg_of_pericenter": 313.8611,
        "meta_mean_anomaly": 224.3875,
        "meta_ephemeris_type": 0,
        "meta_classification_type": "U",
        "meta_norad_cat_id": 32223,
        "meta_element_set_no": 999,
        "meta_rev_at_epoch": 64241,
        "meta_bstar": 0.0016444924,
        "meta_mean_motion_dot": 3.554e-05,
        "meta_mean_motion_ddot": 0,
        "tle_line1": "1 32223U 99025CVV 25347.97083973  .00003554  00000+0  16445-2 0  9992",
        "tle_line2": "2 32223  98.8390  67.0353 0046843 313.8611 224.3875 14.20905079642418"
      },
      "geometry": {
        "type": "Point",
        "coordinates": [
          30.742810791301853,
          77.88970907932293
        ]
      }
    },
    {
      "type": "Feature",
      "properties": {
        "norad_id": 32224,
        "name": "FENGYUN 1C DEB",
        "group": "fengyun-1c-debris",
        "lat": 10.597186966018993,
        "lon": -52.08294552935168,
        "alt_km": 728.8209041987429,
        "timestamp": "2025-12-24T03:53:29.933247+00:00",
        "meta_object_name": "FENGYUN 1C DEB",
        "meta_object_id": "1999-025CVW",
        "meta_epoch": "2025-12-23T19:28:11.282016",
        "meta_mean_motion": 14.34043092,
        "meta_eccentricity": 0.0076924,
        "meta_inclination": 98.9856,
        "meta_ra_of_asc_node": 309.249,
        "meta_arg_of_pericenter": 34.5375,
        "meta_mean_anomaly": 326.0771,
        "meta_ephemeris_type": 0,
        "meta_classification_type": "U",
        "meta_norad_cat_id": 32224,
        "meta_element_set_no": 999,
        "meta_rev_at_epoch": 95882,
        "meta_bstar": 0.00032636,
        "meta_mean_motion_dot": 8.95e-06,
        "meta_mean_motion_ddot": 0,
        "tle_line1": "1 32224U 99025CVW 25357.81124169  .00000895  00000+0  32636-3 0  9996",
        "tle_line2": "2 32224  98.9856 309.2490 0076924  34.5375 326.0771 14.34043092958820"
      },
      "geometry": {
        "type": "Point",
        "coordinates": [
          -52.08294552935168,
          10.597186966018993
        ]
      }
    },
    {
      "type": "Feature",
      "properties": {
        "norad_id": 32225,
        "name": "FENGYUN 1C DEB",
        "group": "fengyun-1c-debris",
        "lat": -5.231360649171622,
        "lon": -133.83874134361437,
        "alt_km": 801.2708674037485,
        "timestamp": "2025-12-24T03:53:29.933257+00:00",
        "meta_object_name": "FENGYUN 1C DEB",
        "meta_object_id": "1999-025CVX",
        "meta_epoch": "2025-12-21T22:20:15.589536",
        "meta_mean_motion": 14.13052966,
        "meta_eccentricity": 0.00721095,
        "meta_inclination": 99.091,
        "meta_ra_of_asc_node": 44.7359,
        "meta_arg_of_pericenter": 180.6743,
        "meta_mean_anomaly": 179.4342,
        "meta_ephemeris_type": 0,
        "meta_classification_type": "U",
        "meta_norad_cat_id": 32225,
        "meta_element_set_no": 999,
        "meta_rev_at_epoch": 68246,
        "meta_bstar": 0.00021617663,
        "meta_mean_motion_dot": 3.68e-06,
        "meta_mean_motion_ddot": 0,
        "tle_line1": "1 32225U 99025CVX 25355.93073599  .00000368  00000+0  21618-3 0  9991",
        "tle_line2": "2 32225  99.0910  44.7359 0072109 180.6743 179.4342 14.13052966682467"
      },
      "geometry": {
        "type": "Point",
        "coordinates": [
          -133.83874134361437,
          -5.231360649171622
        ]
      }
    }
  ]
}